CTC1_L_00088001-01
1 12498U 22766PQ  26037.47802083  .00000000  00000+0  00000-0 0  9996
2 12498  75.0000   0.0000 0000000   0.0000   0.0000 14.79785919    19
CTC1_L_00088001-02
1 12499U 23216TJ  26037.47802083  .00000000  00000+0  00000-0 0  9998
2 12499  75.0000   0.0000 0000000   0.0000  90.0000 14.79785919    19
CTC1_L_00088001-03
1 12500U 22830SY  26037.47802083  .00000000  00000+0  00000-0 0  9992
2 12500  75.0000   0.0000 0000000   0.0000 180.0000 14.79785919    12
CTC1_L_00088001-04
1 12501U 26534YC  26037.47802083  .00000000  00000+0  00000-0 0  9998
2 12501  75.0000   0.0000 0000000   0.0000 270.0000 14.79785919    13
CTC1_L_00088002-01
1 12502U 24179KE  26037.47802083  .00000000  00000+0  00000-0 0  9992
2 12502  75.0000  12.0000 0000000   0.0000  12.0000 14.79785919    11
CTC1_L_00088002-02
1 12503U 22849VV  26037.47802083  .00000000  00000+0  00000-0 0  9995
2 12503  75.0000  12.0000 0000000   0.0000 102.0000 14.79785919    12
CTC1_L_00088002-03
1 12504U 26797AG  26037.47802083  .00000000  00000+0  00000-0 0  9992
2 12504  75.0000  12.0000 0000000   0.0000 192.0000 14.79785919    12
CTC1_L_00088002-04
1 12505U 24069EO  26037.47802083  .00000000  00000+0  00000-0 0  9993
2 12505  75.0000  12.0000 0000000   0.0000 282.0000 14.79785919    13
CTC1_L_00088003-01
1 12506U 25022YA  26037.47802083  .00000000  00000+0  00000-0 0  9994
2 12506  75.0000  24.0000 0000000   0.0000  24.0000 14.79785919    11
CTC1_L_00088003-02
1 12507U 23978FW  26037.47802083  .00000000  00000+0  00000-0 0  9993
2 12507  75.0000  24.0000 0000000   0.0000 114.0000 14.79785919    12
CTC1_L_00088003-03
1 12508U 22258AR  26037.47802083  .00000000  00000+0  00000-0 0  9994
2 12508  75.0000  24.0000 0000000   0.0000 204.0000 14.79785919    13
CTC1_L_00088003-04
1 12509U 25982EC  26037.47802083  .00000000  00000+0  00000-0 0  9992
2 12509  75.0000  24.0000 0000000   0.0000 294.0000 14.79785919    13
CTC1_L_00088004-01
1 12510U 23565RP  26037.47802083  .00000000  00000+0  00000-0 0  9999
2 12510  75.0000  36.0000 0000000   0.0000  36.0000 14.79785919    12
CTC1_L_00088004-02
1 12511U 24532SD  26037.47802083  .00000000  00000+0  00000-0 0  9995
2 12511  75.0000  36.0000 0000000   0.0000 126.0000 14.79785919    13
CTC1_L_00088004-03
1 12512U 26687UA  26037.47802083  .00000000  00000+0  00000-0 0  9999
2 12512  75.0000  36.0000 0000000   0.0000 216.0000 14.79785919    14
CTC1_L_00088004-04
1 12513U 24774QH  26037.47802083  .00000000  00000+0  00000-0 0  9995
2 12513  75.0000  36.0000 0000000   0.0000 306.0000 14.79785919    15
CTC1_L_00088005-01
1 12514U 24580LD  26037.47802083  .00000000  00000+0  00000-0 0  9991
2 12514  75.0000  48.0000 0000000   0.0000  48.0000 14.79785919    12
CTC1_L_00088005-02
1 12515U 25882DA  26037.47802083  .00000000  00000+0  00000-0 0  9998
2 12515  75.0000  48.0000 0000000   0.0000 138.0000 14.79785919    13
CTC1_L_00088005-03
1 12516U 24028CK  26037.47802083  .00000000  00000+0  00000-0 0  9990
2 12516  75.0000  48.0000 0000000   0.0000 228.0000 14.79785919    14
CTC1_L_00088005-04
1 12517U 25644JZ  26037.47802083  .00000000  00000+0  00000-0 0  9996
2 12517  75.0000  48.0000 0000000   0.0000 318.0000 14.79785919    15
CTC1_L_00088006-01
1 12518U 22333MV  26037.47802083  .00000000  00000+0  00000-0 0  9999
2 12518  75.0000  60.0000 0000000   0.0000  60.0000 14.79785919    14
CTC1_L_00088006-02
1 12519U 22098EO  26037.47802083  .00000000  00000+0  00000-0 0  9998
2 12519  75.0000  60.0000 0000000   0.0000 150.0000 14.79785919    15
CTC1_L_00088006-03
1 12520U 24841KJ  26037.47802083  .00000000  00000+0  00000-0 0  9998
2 12520  75.0000  60.0000 0000000   0.0000 240.0000 14.79785919    17
CTC1_L_00088006-04
1 12521U 24800JD  26037.47802083  .00000000  00000+0  00000-0 0  9994
2 12521  75.0000  60.0000 0000000   0.0000 330.0000 14.79785919    18
CTC1_L_00088007-01
1 12522U 23662IB  26037.47802083  .00000000  00000+0  00000-0 0  9990
2 12522  75.0000  72.0000 0000000   0.0000  72.0000 14.79785919    15
CTC1_L_00088007-02
1 12523U 26465JQ  26037.47802083  .00000000  00000+0  00000-0 0  9995
2 12523  75.0000  72.0000 0000000   0.0000 162.0000 14.79785919    16
CTC1_L_00088007-03
1 12524U 25940NX  26037.47802083  .00000000  00000+0  00000-0 0  9993
2 12524  75.0000  72.0000 0000000   0.0000 252.0000 14.79785919    17
CTC1_L_00088007-04
1 12525U 22255AD  26037.47802083  .00000000  00000+0  00000-0 0  9990
2 12525  75.0000  72.0000 0000000   0.0000 342.0000 14.79785919    18
CTC1_L_00088008-01
1 12526U 24570PD  26037.47802083  .00000000  00000+0  00000-0 0  9993
2 12526  75.0000  84.0000 0000000   0.0000  84.0000 14.79785919    15
CTC1_L_00088008-02
1 12527U 25039BO  26037.47802083  .00000000  00000+0  00000-0 0  9995
2 12527  75.0000  84.0000 0000000   0.0000 174.0000 14.79785919    16
CTC1_L_00088008-03
1 12528U 23547TR  26037.47802083  .00000000  00000+0  00000-0 0  9998
2 12528  75.0000  84.0000 0000000   0.0000 264.0000 14.79785919    17
CTC1_L_00088008-04
1 12529U 26798OA  26037.47802083  .00000000  00000+0  00000-0 0  9990
2 12529  75.0000  84.0000 0000000   0.0000 354.0000 14.79785919    18
CTC1_L_00088009-01
1 12530U 24281PH  26037.47802083  .00000000  00000+0  00000-0 0  9997
2 12530  75.0000  96.0000 0000000   0.0000  96.0000 14.79785919    16
CTC1_L_00088009-02
1 12531U 25230BQ  26037.47802083  .00000000  00000+0  00000-0 0  9993
2 12531  75.0000  96.0000 0000000   0.0000 186.0000 14.79785919    17
CTC1_L_00088009-03
1 12532U 24170BY  26037.47802083  .00000000  00000+0  00000-0 0  9996
2 12532  75.0000  96.0000 0000000   0.0000 276.0000 14.79785919    18
CTC1_L_00088009-04
1 12533U 23264QJ  26037.47802083  .00000000  00000+0  00000-0 0  9990
2 12533  75.0000  96.0000 0000000   0.0000   6.0000 14.79785919    10
CTC1_L_00088010-01
1 12534U 26075TB  26037.47802083  .00000000  00000+0  00000-0 0  9994
2 12534  75.0000 108.0000 0000000   0.0000 108.0000 14.79785919    18
CTC1_L_00088010-02
1 12535U 23234DQ  26037.47802083  .00000000  00000+0  00000-0 0  9999
2 12535  75.0000 108.0000 0000000   0.0000 198.0000 14.79785919    18
CTC1_L_00088010-03
1 12536U 22290CO  26037.47802083  .00000000  00000+0  00000-0 0  9991
2 12536  75.0000 108.0000 0000000   0.0000 288.0000 14.79785919    19
CTC1_L_00088010-04
1 12537U 23467AH  26037.47802083  .00000000  00000+0  00000-0 0  9999
2 12537  75.0000 108.0000 0000000   0.0000  18.0000 14.79785919    11
CTC1_L_00088011-01
1 12538U 25589EC  26037.47802083  .00000000  00000+0  00000-0 0  9997
2 12538  75.0000 120.0000 0000000   0.0000 120.0000 14.79785919    10
CTC1_L_00088011-02
1 12539U 26437WL  26037.47802083  .00000000  00000+0  00000-0 0  9991
2 12539  75.0000 120.0000 0000000   0.0000 210.0000 14.79785919    11
CTC1_L_00088011-03
1 12540U 23654EO  26037.47802083  .00000000  00000+0  00000-0 0  9991
2 12540  75.0000 120.0000 0000000   0.0000 300.0000 14.79785919    13
CTC1_L_00088011-04
1 12541U 23645D   26037.47802083  .00000000  00000+0  00000-0 0  9992
2 12541  75.0000 120.0000 0000000   0.0000  30.0000 14.79785919    14
CTC1_L_00088012-01
1 12542U 25725IL  26037.47802083  .00000000  00000+0  00000-0 0  9994
2 12542  75.0000 132.0000 0000000   0.0000 132.0000 14.79785919    11
CTC1_L_00088012-02
1 12543U 25511LG  26037.47802083  .00000000  00000+0  00000-0 0  9998
2 12543  75.0000 132.0000 0000000   0.0000 222.0000 14.79785919    12
CTC1_L_00088012-03
1 12544U 26438KS  26037.47802083  .00000000  00000+0  00000-0 0  9998
2 12544  75.0000 132.0000 0000000   0.0000 312.0000 14.79785919    13
CTC1_L_00088012-04
1 12545U 22007ND  26037.47802083  .00000000  00000+0  00000-0 0  9997
2 12545  75.0000 132.0000 0000000   0.0000  42.0000 14.79785919    14
CTC1_L_00088013-01
1 12546U 24136KG  26037.47802083  .00000000  00000+0  00000-0 0  9993
2 12546  75.0000 144.0000 0000000   0.0000 144.0000 14.79785919    11
CTC1_L_00088013-02
1 12547U 22181XM  26037.47802083  .00000000  00000+0  00000-0 0  9992
2 12547  75.0000 144.0000 0000000   0.0000 234.0000 14.79785919    12
CTC1_L_00088013-03
1 12548U 26625BG  26037.47802083  .00000000  00000+0  00000-0 0  9990
2 12548  75.0000 144.0000 0000000   0.0000 324.0000 14.79785919    13
CTC1_L_00088013-04
1 12549U 26964FI  26037.47802083  .00000000  00000+0  00000-0 0  9997
2 12549  75.0000 144.0000 0000000   0.0000  54.0000 14.79785919    14
CTC1_L_00088014-01
1 12550U 23314EO  26037.47802083  .00000000  00000+0  00000-0 0  9995
2 12550  75.0000 156.0000 0000000   0.0000 156.0000 14.79785919    12
CTC1_L_00088014-02
1 12551U 22162CA  26037.47802083  .00000000  00000+0  00000-0 0  9996
2 12551  75.0000 156.0000 0000000   0.0000 246.0000 14.79785919    13
CTC1_L_00088014-03
1 12552U 22282GY  26037.47802083  .00000000  00000+0  00000-0 0  9990
2 12552  75.0000 156.0000 0000000   0.0000 336.0000 14.79785919    14
CTC1_L_00088014-04
1 12553U 23143JZ  26037.47802083  .00000000  00000+0  00000-0 0  9998
2 12553  75.0000 156.0000 0000000   0.0000  66.0000 14.79785919    15
CTC1_L_00088015-01
1 12554U 22718NB  26037.47802083  .00000000  00000+0  00000-0 0  9996
2 12554  75.0000 168.0000 0000000   0.0000 168.0000 14.79785919    12
CTC1_L_00088015-02
1 12555U 25799IM  26037.47802083  .00000000  00000+0  00000-0 0  9999
2 12555  75.0000 168.0000 0000000   0.0000 258.0000 14.79785919    13
CTC1_L_00088015-03
1 12556U 26330SW  26037.47802083  .00000000  00000+0  00000-0 0  9992
2 12556  75.0000 168.0000 0000000   0.0000 348.0000 14.79785919    14
CTC1_L_00088015-04
1 12557U 24557QK  26037.47802083  .00000000  00000+0  00000-0 0  9992
2 12557  75.0000 168.0000 0000000   0.0000  78.0000 14.79785919    15
CTC1_L_00088016-01
1 12558U 23075XE  26037.47802083  .00000000  00000+0  00000-0 0  9997
2 12558  75.0000 180.0000 0000000   0.0000 180.0000 14.79785919    14
CTC1_L_00088016-02
1 12559U 24018PA  26037.47802083  .00000000  00000+0  00000-0 0  9996
2 12559  75.0000 180.0000 0000000   0.0000 270.0000 14.79785919    15
